CCSDS_OMM_VERS = 2.0
CREATION_DATE  = 
ORIGINATOR     = 

OBJECT_NAME    = STARLINK-36037
OBJECT_ID      = 2025-270AB
CENTER_NAME    = EARTH
REF_FRAME      = TEME
TIME_SYSTEM    = UTC
MEAN_ELEMENT_THEORY = SGP/SGP4

EPOCH          = 2025-12-20T19:48:38.926656
MEAN_MOTION    = 15.40706615
ECCENTRICITY   = .00010001
INCLINATION    = 42.9990
RA_OF_ASC_NODE = 145.9711
ARG_OF_PERICENTER = 224.1294
MEAN_ANOMALY   = 135.9482

EPHEMERIS_TYPE = 0
CLASSIFICATION_TYPE = U
NORAD_CAT_ID   = 66613
ELEMENT_SET_NO = 999
REV_AT_EPOCH   = 559
BSTAR          = .12050027E-2
MEAN_MOTION_DOT = .50376E-3
MEAN_MOTION_DDOT = 0

CCSDS_OMM_VERS = 2.0
CREATION_DATE  = 
ORIGINATOR     = 

OBJECT_NAME    = STARLINK-36040
OBJECT_ID      = 2025-270AC
CENTER_NAME    = EARTH
REF_FRAME      = TEME
TIME_SYSTEM    = UTC
MEAN_ELEMENT_THEORY = SGP/SGP4

EPOCH          = 2025-12-20T22:00:01.999584
MEAN_MOTION    = 15.40671151
ECCENTRICITY   = .00018192
INCLINATION    = 42.9999
RA_OF_ASC_NODE = 145.1771
ARG_OF_PERICENTER = 282.1588
MEAN_ANOMALY   = 336.5262

EPHEMERIS_TYPE = 0
CLASSIFICATION_TYPE = U
NORAD_CAT_ID   = 66614
ELEMENT_SET_NO = 999
REV_AT_EPOCH   = 555
BSTAR          = .20684484E-2
MEAN_MOTION_DOT = .87009E-3
MEAN_MOTION_DDOT = 0

CCSDS_OMM_VERS = 2.0
CREATION_DATE  = 
ORIGINATOR     = 

OBJECT_NAME    = STARLINK-35988
OBJECT_ID      = 2025-270AD
CENTER_NAME    = EARTH
REF_FRAME      = TEME
TIME_SYSTEM    = UTC
MEAN_ELEMENT_THEORY = SGP/SGP4

EPOCH          = 2025-12-20T19:38:57.992928
MEAN_MOTION    = 15.40703330
ECCENTRICITY   = .00018631
INCLINATION    = 43.0001
RA_OF_ASC_NODE = 145.9221
ARG_OF_PERICENTER = 284.8936
MEAN_ANOMALY   = 75.1714

EPHEMERIS_TYPE = 0
CLASSIFICATION_TYPE = U
NORAD_CAT_ID   = 66615
ELEMENT_SET_NO = 999
REV_AT_EPOCH   = 543
BSTAR          = .91861833E-3
MEAN_MOTION_DOT = .38267E-3
MEAN_MOTION_DDOT = 0

CCSDS_OMM_VERS = 2.0
CREATION_DATE  = 
ORIGINATOR     = 

OBJECT_NAME    = STARLINK-35391
OBJECT_ID      = 2025-270AE
CENTER_NAME    = EARTH
REF_FRAME      = TEME
TIME_SYSTEM    = UTC
MEAN_ELEMENT_THEORY = SGP/SGP4

EPOCH          = 2025-12-20T22:00:01.999584
MEAN_MOTION    = 15.40672917
ECCENTRICITY   = .00014456
INCLINATION    = 43.0000
RA_OF_ASC_NODE = 145.1169
ARG_OF_PERICENTER = 277.0914
MEAN_ANOMALY   = 6.4731

EPHEMERIS_TYPE = 0
CLASSIFICATION_TYPE = U
NORAD_CAT_ID   = 66616
ELEMENT_SET_NO = 999
REV_AT_EPOCH   = 582
BSTAR          = .2092818E-2
MEAN_MOTION_DOT = .88054E-3
MEAN_MOTION_DDOT = 0

CCSDS_OMM_VERS = 2.0
CREATION_DATE  = 
ORIGINATOR     = 

OBJECT_NAME    = STARLINK-35940
OBJECT_ID      = 2025-271A
CENTER_NAME    = EARTH
REF_FRAME      = TEME
TIME_SYSTEM    = UTC
MEAN_ELEMENT_THEORY = SGP/SGP4

EPOCH          = 2025-12-20T19:47:13.217856
MEAN_MOTION    = 15.39629505
ECCENTRICITY   = .00009653
INCLINATION    = 53.1600
RA_OF_ASC_NODE = 148.9882
ARG_OF_PERICENTER = 80.5261
MEAN_ANOMALY   = 279.5852

EPHEMERIS_TYPE = 0
CLASSIFICATION_TYPE = U
NORAD_CAT_ID   = 66617
ELEMENT_SET_NO = 999
REV_AT_EPOCH   = 545
BSTAR          = .64055977E-3
MEAN_MOTION_DOT = .25315E-3
MEAN_MOTION_DDOT = 0

CCSDS_OMM_VERS = 2.0
CREATION_DATE  = 
ORIGINATOR     = 

OBJECT_NAME    = STARLINK-35970
OBJECT_ID      = 2025-271B
CENTER_NAME    = EARTH
REF_FRAME      = TEME
TIME_SYSTEM    = UTC
MEAN_ELEMENT_THEORY = SGP/SGP4

EPOCH          = 2025-12-19T22:33:37.423008
MEAN_MOTION    = 15.46560751
ECCENTRICITY   = .0001439
INCLINATION    = 53.1597
RA_OF_ASC_NODE = 152.7030
ARG_OF_PERICENTER = 41.7030
MEAN_ANOMALY   = 318.4087

EPHEMERIS_TYPE = 0
CLASSIFICATION_TYPE = U
NORAD_CAT_ID   = 66618
ELEMENT_SET_NO = 999
REV_AT_EPOCH   = 532
BSTAR          = -.83391E-2
MEAN_MOTION_DOT = -.40083E-2
MEAN_MOTION_DDOT = 0

CCSDS_OMM_VERS = 2.0
CREATION_DATE  = 
ORIGINATOR     = 

OBJECT_NAME    = STARLINK-35951
OBJECT_ID      = 2025-271C
CENTER_NAME    = EARTH
REF_FRAME      = TEME
TIME_SYSTEM    = UTC
MEAN_ELEMENT_THEORY = SGP/SGP4

EPOCH          = 2025-12-19T22:45:25.750080
MEAN_MOTION    = 15.46545275
ECCENTRICITY   = .0002872
INCLINATION    = 53.1623
RA_OF_ASC_NODE = 152.7597
ARG_OF_PERICENTER = 23.3692
MEAN_ANOMALY   = 336.7446

EPHEMERIS_TYPE = 0
CLASSIFICATION_TYPE = U
NORAD_CAT_ID   = 66619
ELEMENT_SET_NO = 999
REV_AT_EPOCH   = 532
BSTAR          = -.81194E-2
MEAN_MOTION_DOT = -.39068E-2
MEAN_MOTION_DDOT = 0

CCSDS_OMM_VERS = 2.0
CREATION_DATE  = 
ORIGINATOR     = 

OBJECT_NAME    = STARLINK-35936
OBJECT_ID      = 2025-271D
CENTER_NAME    = EARTH
REF_FRAME      = TEME
TIME_SYSTEM    = UTC
MEAN_ELEMENT_THEORY = SGP/SGP4

EPOCH          = 2025-12-19T22:47:58.481952
MEAN_MOTION    = 15.45204148
ECCENTRICITY   = .0001217
INCLINATION    = 53.1593
RA_OF_ASC_NODE = 152.7719
ARG_OF_PERICENTER = 60.4895
MEAN_ANOMALY   = 299.6234

EPHEMERIS_TYPE = 0
CLASSIFICATION_TYPE = U
NORAD_CAT_ID   = 66620
ELEMENT_SET_NO = 999
REV_AT_EPOCH   = 532
BSTAR          = -.84825E-2
MEAN_MOTION_DOT = -.389636E-2
MEAN_MOTION_DDOT = 0

CCSDS_OMM_VERS = 2.0
CREATION_DATE  = 
ORIGINATOR     = 

OBJECT_NAME    = STARLINK-35847
OBJECT_ID      = 2025-271E
CENTER_NAME    = EARTH
REF_FRAME      = TEME
TIME_SYSTEM    = UTC
MEAN_ELEMENT_THEORY = SGP/SGP4

EPOCH          = 2025-12-19T22:32:40.837056
MEAN_MOTION    = 15.46739890
ECCENTRICITY   = .0000574
INCLINATION    = 53.1594
RA_OF_ASC_NODE = 152.6978
ARG_OF_PERICENTER = 182.8412
MEAN_ANOMALY   = 177.2593

EPHEMERIS_TYPE = 0
CLASSIFICATION_TYPE = U
NORAD_CAT_ID   = 66621
ELEMENT_SET_NO = 999
REV_AT_EPOCH   = 532
BSTAR          = -.53109E-2
MEAN_MOTION_DOT = -.261578E-2
MEAN_MOTION_DDOT = 0

CCSDS_OMM_VERS = 2.0
CREATION_DATE  = 
ORIGINATOR     = 

OBJECT_NAME    = STARLINK-35950
OBJECT_ID      = 2025-271F
CENTER_NAME    = EARTH
REF_FRAME      = TEME
TIME_SYSTEM    = UTC
MEAN_ELEMENT_THEORY = SGP/SGP4

EPOCH          = 2025-12-20T22:00:01.999584
MEAN_MOTION    = 15.39595376
ECCENTRICITY   = .00011477
INCLINATION    = 53.1591
RA_OF_ASC_NODE = 148.3496
ARG_OF_PERICENTER = 73.9416
MEAN_ANOMALY   = 180.7741

EPHEMERIS_TYPE = 0
CLASSIFICATION_TYPE = U
NORAD_CAT_ID   = 66622
ELEMENT_SET_NO = 999
REV_AT_EPOCH   = 555
BSTAR          = .14344262E-2
MEAN_MOTION_DOT = .57362E-3
MEAN_MOTION_DDOT = 0

CCSDS_OMM_VERS = 2.0
CREATION_DATE  = 
ORIGINATOR     = 

OBJECT_NAME    = STARLINK-35920
OBJECT_ID      = 2025-271G
CENTER_NAME    = EARTH
REF_FRAME      = TEME
TIME_SYSTEM    = UTC
MEAN_ELEMENT_THEORY = SGP/SGP4

EPOCH          = 2025-12-20T18:00:21.356352
MEAN_MOTION    = 15.39640235
ECCENTRICITY   = .00035238
INCLINATION    = 53.1606
RA_OF_ASC_NODE = 149.2333
ARG_OF_PERICENTER = 63.4222
MEAN_ANOMALY   = 296.7144

EPHEMERIS_TYPE = 0
CLASSIFICATION_TYPE = U
NORAD_CAT_ID   = 66623
ELEMENT_SET_NO = 999
REV_AT_EPOCH   = 544
BSTAR          = .64131801E-3
MEAN_MOTION_DOT = .25358E-3
MEAN_MOTION_DDOT = 0

CCSDS_OMM_VERS = 2.0
CREATION_DATE  = 
ORIGINATOR     = 

OBJECT_NAME    = STARLINK-35927
OBJECT_ID      = 2025-271H
CENTER_NAME    = EARTH
REF_FRAME      = TEME
TIME_SYSTEM    = UTC
MEAN_ELEMENT_THEORY = SGP/SGP4

EPOCH          = 2025-12-19T22:44:25.582848
MEAN_MOTION    = 15.46532201
ECCENTRICITY   = .0000849
INCLINATION    = 53.1590
RA_OF_ASC_NODE = 152.7553
ARG_OF_PERICENTER = 106.2501
MEAN_ANOMALY   = 253.8600

EPHEMERIS_TYPE = 0
CLASSIFICATION_TYPE = U
NORAD_CAT_ID   = 66624
ELEMENT_SET_NO = 999
REV_AT_EPOCH   = 532
BSTAR          = -.84107E-2
MEAN_MOTION_DOT = -.403682E-2
MEAN_MOTION_DDOT = 0

