STARLINK-36037          
1 66613U 25270AB  25354.82545054  .00050376  00000+0  12050-2 0  9990
2 66613  42.9990 145.9711 0001000 224.1294 135.9482 15.40706615  5596
STARLINK-36040          
1 66614U 25270AC  25354.91668981  .00087009  00000+0  20684-2 0  9991
2 66614  42.9999 145.1771 0001819 282.1588 336.5262 15.40671151  5559
STARLINK-35988          
1 66615U 25270AD  25354.81872677  .00038267  00000+0  91862-3 0  9999
2 66615  43.0001 145.9221 0001863 284.8936  75.1714 15.40703330  5439
STARLINK-35391          
1 66616U 25270AE  25354.91668981  .00088054  00000+0  20928-2 0  9995
2 66616  43.0000 145.1169 0001445 277.0914   6.4731 15.40672917  5823
STARLINK-35940          
1 66617U 25271A   25354.82445854  .00025315  00000+0  64056-3 0  9991
2 66617  53.1600 148.9882 0000965  80.5261 279.5852 15.39629505  5452
STARLINK-35970          
1 66618U 25271B   25353.94001647 -.00400830  00000+0 -83391-2 0  9995
2 66618  53.1597 152.7030 0001439  41.7030 318.4087 15.46560751  5320
STARLINK-35951          
1 66619U 25271C   25353.94821470 -.00390680  00000+0 -81194-2 0  9990
2 66619  53.1623 152.7597 0002872  23.3692 336.7446 15.46545275  5327
STARLINK-35936          
1 66620U 25271D   25353.94998243 -.00389636  00000+0 -84825-2 0  9998
2 66620  53.1593 152.7719 0001217  60.4895 299.6234 15.45204148  5322
STARLINK-35847          
1 66621U 25271E   25353.93936154 -.00261578  00000+0 -53109-2 0  9996
2 66621  53.1594 152.6978 0000574 182.8412 177.2593 15.46739890  5326
STARLINK-35950          
1 66622U 25271F   25354.91668981  .00057362  00000+0  14344-2 0  9996
2 66622  53.1591 148.3496 0001147  73.9416 180.7741 15.39595376  5552
STARLINK-35920          
1 66623U 25271G   25354.75024718  .00025358  00000+0  64132-3 0  9994
2 66623  53.1606 149.2333 0003523  63.4222 296.7144 15.39640235  5447
STARLINK-35927          
1 66624U 25271H   25353.94751832 -.00403682  00000+0 -84107-2 0  9994
2 66624  53.1590 152.7553 0000849 106.2501 253.8600 15.46532201  5326
